{"type": "FeatureCollection", "features": [ {"type": "Feature", "properties": {"norad_id": 66563, "name": "STARLINK-35437", "group": "last-30-days", "lat": 4.740061272336172, "lon": -18.221094163566676, "alt_km": 361.34631032634024, "timestamp": "2025-12-04T23:34:04.491463+00:00", "meta": {"OBJECT_NAME": "STARLINK-35437", "OBJECT_ID": "2025-268G", "EPOCH": "2025-12-04T18:00:02.000160", "MEAN_MOTION": 15.69901983, "ECCENTRICITY": 0.0001629, "INCLINATION": 42.9987, "RA_OF_ASC_NODE": 168.2803, "ARG_OF_PERICENTER": 266.2263, "MEAN_ANOMALY": 34.534, "EPHEMERIS_TYPE": 0, "CLASSIFICATION_TYPE": "U", "NORAD_CAT_ID": 66563, "ELEMENT_SET_NO": 999, "REV_AT_EPOCH": 338, "BSTAR": -0.017733, "MEAN_MOTION_DOT": -0.01937127, "MEAN_MOTION_DDOT": 0}, "tle": {"line1": "1 66563U 25268G   25338.75002315 -.01937127  00000+0 -17733-1 0  9996", "line2": "2 66563  42.9987 168.2803 0001629 266.2263  34.5340 15.69901983  3384"}}, "geometry": {"type": "Point", "coordinates": [-18.221094163566676, 4.740061272336172]}}, {"type": "Feature", "properties": {"norad_id": 66564, "name": "STARLINK-35358", "group": "last-30-days", "lat": 3.436111214415678, "lon": -16.81490891924429, "alt_km": 361.4959526394896, "timestamp": "2025-12-04T23:34:04.491474+00:00", "meta": {"OBJECT_NAME": "STARLINK-35358", "OBJECT_ID": "2025-268H", "EPOCH": "2025-12-04T18:00:02.000160", "MEAN_MOTION": 15.69901598, "ECCENTRICITY": 0.0001601, "INCLINATION": 42.9986, "RA_OF_ASC_NODE": 168.2757, "ARG_OF_PERICENTER": 266.6639, "MEAN_ANOMALY": 36.0144, "EPHEMERIS_TYPE": 0, "CLASSIFICATION_TYPE": "U", "NORAD_CAT_ID": 66564, "ELEMENT_SET_NO": 999, "REV_AT_EPOCH": 333, "BSTAR": -0.017736, "MEAN_MOTION_DOT": -0.0193734, "MEAN_MOTION_DDOT": 0}, "tle": {"line1": "1 66564U 25268H   25338.75002315 -.01937340  00000+0 -17736-1 0  9997", "line2": "2 66564  42.9986 168.2757 0001601 266.6639  36.0144 15.69901598  3339"}}, "geometry": {"type": "Point", "coordinates": [-16.81490891924429, 3.436111214415678]}}, {"type": "Feature", "properties": {"norad_id": 66565, "name": "STARLINK-35893", "group": "last-30-days", "lat": 2.131119398427418, "lon": -15.414151149422564, "alt_km": 361.62319845075035, "timestamp": "2025-12-04T23:34:04.491505+00:00", "meta": {"OBJECT_NAME": "STARLINK-35893", "OBJECT_ID": "2025-268J", "EPOCH": "2025-12-04T18:00:02.000160", "MEAN_MOTION": 15.6989749, "ECCENTRICITY": 0.0001647, "INCLINATION": 42.9987, "RA_OF_ASC_NODE": 168.2706, "ARG_OF_PERICENTER": 266.0584, "MEAN_ANOMALY": 38.5392, "EPHEMERIS_TYPE": 0, "CLASSIFICATION_TYPE": "U", "NORAD_CAT_ID": 66565, "ELEMENT_SET_NO": 999, "REV_AT_EPOCH": 338, "BSTAR": -0.017686, "MEAN_MOTION_DOT": -0.01932308, "MEAN_MOTION_DDOT": 0}, "tle": {"line1": "1 66565U 25268J   25338.75002315 -.01932308  00000+0 -17686-1 0  9991", "line2": "2 66565  42.9987 168.2706 0001647 266.0584  38.5392 15.69897490  3380"}}, "geometry": {"type": "Point", "coordinates": [-15.414151149422564, 2.131119398427418]}}, {"type": "Feature", "properties": {"norad_id": 66566, "name": "STARLINK-35871", "group": "last-30-days", "lat": 0.8243357355588152, "lon": -14.014945823120739, "alt_km": 361.7381163737391, "timestamp": "2025-12-04T23:34:04.491519+00:00", "meta": {"OBJECT_NAME": "STARLINK-35871", "OBJECT_ID": "2025-268K", "EPOCH": "2025-12-04T18:00:02.000160", "MEAN_MOTION": 15.69896953, "ECCENTRICITY": 0.0001622, "INCLINATION": 42.9987, "RA_OF_ASC_NODE": 168.2658, "ARG_OF_PERICENTER": 265.2427, "MEAN_ANOMALY": 41.2722, "EPHEMERIS_TYPE": 0, "CLASSIFICATION_TYPE": "U", "NORAD_CAT_ID": 66566, "ELEMENT_SET_NO": 999, "REV_AT_EPOCH": 338, "BSTAR": -0.017678, "MEAN_MOTION_DOT": -0.01931496, "MEAN_MOTION_DDOT": 0}, "tle": {"line1": "1 66566U 25268K   25338.75002315 -.01931496  00000+0 -17678-1 0  9990", "line2": "2 66566  42.9987 168.2658 0001622 265.2427  41.2722 15.69896953  3388"}}, "geometry": {"type": "Point", "coordinates": [-14.014945823120739, 0.8243357355588152]}}, {"type": "Feature", "properties": {"norad_id": 66567, "name": "STARLINK-35825", "group": "last-30-days", "lat": -0.48284123138137963, "lon": -12.616572608077874, "alt_km": 361.9438413311973, "timestamp": "2025-12-04T23:34:04.491530+00:00", "meta": {"OBJECT_NAME": "STARLINK-35825", "OBJECT_ID": "2025-268L", "EPOCH": "2025-12-04T18:00:02.000160", "MEAN_MOTION": 15.69898801, "ECCENTRICITY": 0.0001645, "INCLINATION": 42.9987, "RA_OF_ASC_NODE": 168.2612, "ARG_OF_PERICENTER": 268.4942, "MEAN_ANOMALY": 39.9377, "EPHEMERIS_TYPE": 0, "CLASSIFICATION_TYPE": "U", "NORAD_CAT_ID": 66567, "ELEMENT_SET_NO": 999, "REV_AT_EPOCH": 338, "BSTAR": -0.017718, "MEAN_MOTION_DOT": -0.01935443, "MEAN_MOTION_DDOT": 0}, "tle": {"line1": "1 66567U 25268L   25338.75002315 -.01935443  00000+0 -17718-1 0  9992", "line2": "2 66567  42.9987 168.2612 0001645 268.4942  39.9377 15.69898801  3385"}}, "geometry": {"type": "Point", "coordinates": [-12.616572608077874, -0.48284123138137963]}}, {"type": "Feature", "properties": {"norad_id": 66568, "name": "STARLINK-35803", "group": "last-30-days", "lat": -1.7914618947639342, "lon": -11.216598556197653, "alt_km": 362.070715589226, "timestamp": "2025-12-04T23:34:04.491541+00:00", "meta": {"OBJECT_NAME": "STARLINK-35803", "OBJECT_ID": "2025-268M", "EPOCH": "2025-12-04T18:00:02.000160", "MEAN_MOTION": 15.69901309, "ECCENTRICITY": 0.0001489, "INCLINATION": 42.9987, "RA_OF_ASC_NODE": 168.2558, "ARG_OF_PERICENTER": 268.3953, "MEAN_ANOMALY": 41.9534, "EPHEMERIS_TYPE": 0, "CLASSIFICATION_TYPE": "U", "NORAD_CAT_ID": 66568, "ELEMENT_SET_NO": 999, "REV_AT_EPOCH": 338, "BSTAR": -0.017751, "MEAN_MOTION_DOT": -0.01938749, "MEAN_MOTION_DDOT": 0}, "tle": {"line1": "1 66568U 25268M   25338.75002315 -.01938749  00000+0 -17751-1 0  9992", "line2": "2 66568  42.9987 168.2558 0001489 268.3953  41.9534 15.69901309  3388"}}, "geometry": {"type": "Point", "coordinates": [-11.216598556197653, -1.7914618947639342]}}, {"type": "Feature", "properties": {"norad_id": 66569, "name": "STARLINK-35835", "group": "last-30-days", "lat": -3.095200485529043, "lon": -9.817824561118636, "alt_km": 362.154575671826, "timestamp": "2025-12-04T23:34:04.491554+00:00", "meta": {"OBJECT_NAME": "STARLINK-35835", "OBJECT_ID": "2025-268N", "EPOCH": "2025-12-04T18:00:02.000160", "MEAN_MOTION": 15.69902128, "ECCENTRICITY": 0.000162, "INCLINATION": 42.9988, "RA_OF_ASC_NODE": 168.2513, "ARG_OF_PERICENTER": 266.9073, "MEAN_ANOMALY": 45.3566, "EPHEMERIS_TYPE": 0, "CLASSIFICATION_TYPE": "U", "NORAD_CAT_ID": 66569, "ELEMENT_SET_NO": 999, "REV_AT_EPOCH": 338, "BSTAR": -0.01775, "MEAN_MOTION_DOT": -0.01938737, "MEAN_MOTION_DDOT": 0}, "tle": {"line1": "1 66569U 25268N   25338.75002315 -.01938737  00000+0 -17750-1 0  9999", "line2": "2 66569  42.9988 168.2513 0001620 266.9073  45.3566 15.69902128  3388"}}, "geometry": {"type": "Point", "coordinates": [-9.817824561118636, -3.095200485529043]}}, {"type": "Feature", "properties": {"norad_id": 66570, "name": "STARLINK-35834", "group": "last-30-days", "lat": -4.398063857044693, "lon": -8.415199989448961, "alt_km": 362.23671567081783, "timestamp": "2025-12-04T23:34:04.491564+00:00", "meta": {"OBJECT_NAME": "STARLINK-35834", "OBJECT_ID": "2025-268P", "EPOCH": "2025-12-04T18:00:02.000160", "MEAN_MOTION": 15.69903634, "ECCENTRICITY": 0.0001646, "INCLINATION": 42.9986, "RA_OF_ASC_NODE": 168.2461, "ARG_OF_PERICENTER": 265.5935, "MEAN_ANOMALY": 48.5851, "EPHEMERIS_TYPE": 0, "CLASSIFICATION_TYPE": "U", "NORAD_CAT_ID": 66570, "ELEMENT_SET_NO": 999, "REV_AT_EPOCH": 338, "BSTAR": -0.017741, "MEAN_MOTION_DOT": -0.01938013, "MEAN_MOTION_DDOT": 0}, "tle": {"line1": "1 66570U 25268P   25338.75002315 -.01938013  00000+0 -17741-1 0  9998", "line2": "2 66570  42.9986 168.2461 0001646 265.5935  48.5851 15.69903634  3385"}}, "geometry": {"type": "Point", "coordinates": [-8.415199989448961, -4.398063857044693]}}, {"type": "Feature", "properties": {"norad_id": 66571, "name": "STARLINK-35836", "group": "last-30-days", "lat": -5.700097004796539, "lon": -7.004975518537297, "alt_km": 362.37146302560905, "timestamp": "2025-12-04T23:34:04.491575+00:00", "meta": {"OBJECT_NAME": "STARLINK-35836", "OBJECT_ID": "2025-268Q", "EPOCH": "2025-12-04T18:00:02.000160", "MEAN_MOTION": 15.69904894, "ECCENTRICITY": 0.0001572, "INCLINATION": 42.9986, "RA_OF_ASC_NODE": 168.2416, "ARG_OF_PERICENTER": 266.0223, "MEAN_ANOMALY": 50.0736, "EPHEMERIS_TYPE": 0, "CLASSIFICATION_TYPE": "U", "NORAD_CAT_ID": 66571, "ELEMENT_SET_NO": 999, "REV_AT_EPOCH": 338, "BSTAR": -0.017762, "MEAN_MOTION_DOT": -0.01940112, "MEAN_MOTION_DDOT": 0}, "tle": {"line1": "1 66571U 25268Q   25338.75002315 -.01940112  00000+0 -17762-1 0  9995", "line2": "2 66571  42.9986 168.2416 0001572 266.0223  50.0736 15.69904894  3389"}}, "geometry": {"type": "Point", "coordinates": [-7.004975518537297, -5.700097004796539]}}, {"type": "Feature", "properties": {"norad_id": 66572, "name": "STARLINK-35870", "group": "last-30-days", "lat": -6.99712658473475, "lon": -5.589210946650016, "alt_km": 362.4271035710899, "timestamp": "2025-12-04T23:34:04.491587+00:00", "meta": {"OBJECT_NAME": "STARLINK-35870", "OBJECT_ID": "2025-268R", "EPOCH": "2025-12-04T18:00:02.000160", "MEAN_MOTION": 15.69903133, "ECCENTRICITY": 0.0001605, "INCLINATION": 42.9986, "RA_OF_ASC_NODE": 168.2379, "ARG_OF_PERICENTER": 263.5387, "MEAN_ANOMALY": 54.4747, "EPHEMERIS_TYPE": 0, "CLASSIFICATION_TYPE": "U", "NORAD_CAT_ID": 66572, "ELEMENT_SET_NO": 999, "REV_AT_EPOCH": 338, "BSTAR": -0.017737, "MEAN_MOTION_DOT": -0.0193758, "MEAN_MOTION_DDOT": 0}, "tle": {"line1": "1 66572U 25268R   25338.75002315 -.01937580  00000+0 -17737-1 0  9993", "line2": "2 66572  42.9986 168.2379 0001605 263.5387  54.4747 15.69903133  3383"}}, "geometry": {"type": "Point", "coordinates": [-5.589210946650016, -6.99712658473475]}}]}